P/2016 R4 (Gibbs),e,10.8590,168.2246,174.0658,5.341129,0.0798462,0.47439251,289.4483,06/20.0/2026,2000,g 12.5,4.0
# From MPC194149
C/2016 X1 (Lemmon),e,26.4621,256.3159,224.6896,4218,0.0000036,0.99820546,0.0000,05/02.1486/2019,2000,g  6.0,4.0
# From MPC194150
C/2017 AB5 (PANSTARRS),h,02/20.5088/2018,32.4338,42.6102,78.4500,1.000861,9.215922,2000,5.5,4.0
# From MPC194150
C/2017 B3 (LINEAR),e,54.2641,2.3014,284.6707,2510,0.0000078,0.99843478,0.0000,01/29.7605/2019,2000,g  6.0,4.0
# From MPC194150
P/2017 D1 (Fuls),e,20.7722,82.1821,8.1598,4.819177,0.0931633,0.43772792,339.0230,06/20.0/2026,2000,g 14.0,4.0
# From MPEC 2026-L50
C/2017 E3 (PANSTARRS),h,06/06.9690/2017,70.6658,220.7345,334.1500,1.004263,5.898997,2000,6.5,4.0
# From MPC194151
C/2017 F2 (PANSTARRS),h,11/27.2025/2017,42.5301,38.6389,134.7712,1.002238,6.899255,2000,7.5,4.0
# From MPC194151
P/2017 FL36 (PANSTARRS),e,15.7021,313.4530,91.0563,2.929932,0.1965249,0.03447378,61.0917,06/20.0/2026,2000,g 14.7,4.0
# From MPC194151
C/2017 K1 (PANSTARRS),e,154.0290,225.6784,4.0885,42957,0.0000001,0.99983096,0.0000,03/12.4120/2018,2000,g  7.0,4.0
# From MPEC 2026-HH0
C/2017 K2 (PANSTARRS),e,87.6463,88.2228,236.1451,1108,0.0000267,0.99837488,0.0000,12/17.8100/2022,2000,g  1.5,4.0
# From MPC194152
C/2017 K5 (PANSTARRS),h,03/24.3235/2020,82.2856,102.4444,171.8529,1.002623,7.666998,2000,5.0,4.0
# From MPC194152
C/2017 M4 (ATLAS),e,105.6495,65.9666,167.3272,19144,0.0000004,0.99983125,0.0000,01/17.2300/2019,2000,g  6.0,4.0
# From MPC194152
C/2017 M5 (TOTAS),h,05/30.3492/2018,15.8722,216.3047,92.7531,1.001685,6.005999,2000,6.5,4.0
# From MPC194152
P/2017 P1 (PANSTARRS),e,7.6886,221.3513,122.9030,7.918432,0.0442329,0.30845890,129.4534,06/20.0/2026,2000,g 10.0,4.0
# From MPC194153
C/2017 S7 (Lemmon),h,05/26.2037/2017,124.2258,262.6635,187.7915,1.000265,7.644627,2000,7.0,4.0
# From MPC194153
P/2017 S8 (PANSTARRS),e,29.8448,191.4718,254.9847,2.778212,0.2128413,0.39114013,292.1708,06/20.0/2026,2000,g 16.0,4.0
# From MPC194153
C/2017 T2 (PANSTARRS),e,57.2512,64.3773,92.7845,1796,0.0000129,0.99910879,0.0000,05/06.8732/2020,2000,g  5.0,4.0
# From MPC194153
P/2017 TW13 (Lemmon),e,44.8858,322.0415,120.1150,7.139845,0.0516620,0.71028604,150.7568,06/20.0/2026,2000,g 15.0,2.0
# From MPC194153
P/2017 U3 (PANSTARRS),e,15.9276,165.0450,296.6940,4.918114,0.0903662,0.10093694,236.4683,06/20.0/2026,2000,g 11.0,4.0
# From MPC194153
C/2017 U4 (PANSTARRS),e,158.2049,245.9472,159.2824,31752,0.0000002,0.99975570,0.0000,09/22.9817/2018,2000,g  7.0,4.0
# From MPC194154
C/2017 U7 (PANSTARRS),h,09/15.9359/2019,142.6382,276.3153,326.3263,1.002311,6.409566,2000,8.3,2.0
# From MPC194154
P/2017 W3 (Gibbs),e,18.2023,210.0088,327.8185,7.816256,0.0451030,0.50760362,136.8266,06/20.0/2026,2000,g 10.5,4.0
# From MPC194155
C/2018 A6 (Gibbs),e,77.2030,340.5012,264.2142,14.98940,0.0169835,0.79905408,43.0724,06/20.0/2026,2000,g  9.0,4.0
# From MPC194156
P/2018 H2 (PANSTARRS),e,7.4440,67.5426,119.3924,4.419777,0.1060727,0.53973168,331.2878,06/20.0/2026,2000,g 16.6,2.0
# From MPEC 2021-R75
C/2018 KJ3 (Lemmon),e,136.6288,91.6915,217.4919,617.7638,0.0000642,0.99414505,0.0000,09/07.4061/2019,2000,g 12.2,2.0
# From MPC194156
C/2018 N2 (ASASSN),h,11/11.9352/2019,77.4297,25.2767,24.6314,1.002090,3.138223,2000,6.0,4.0
# From MPC194157
P/2018 P4 (PANSTARRS),e,23.0615,353.1003,8.5567,6.698387,0.0568524,0.44833662,158.3346,06/20.0/2026,2000,g 12.0,4.0
# From MPC194157
C/2018 S2 (TESS),e,64.1211,85.0791,291.0313,14.36156,0.0181093,0.61698681,50.4446,06/20.0/2026,2000,g  7.5,4.0
# From MPC194157
C/2018 U1 (Lemmon),e,108.3287,75.4948,180.2766,7298,0.0000016,0.99931743,0.0000,11/01.4619/2021,2000,g  5.0,4.0
# From MPC194158
P/2018 VN2 (Leonard),e,18.2554,226.4273,138.9337,4.059901,0.1204844,0.47792501,353.1591,06/20.0/2026,2000,g 15.0,4.0
# From MPC194158
A/2018 W3,e,104.8263,251.6631,313.7901,667.7534,0.0000571,0.99359665,0.0000,04/13.2009/2021,2000,g 10.5,2.0
# From MPC194159
P/2018 Y2 (Africano),e,11.6971,297.1079,162.4681,7.461316,0.0483594,0.47976721,131.6677,06/20.0/2026,2000,g 11.5,4.0
# From MPC194159
P/2019 A2 (ATLAS),e,14.8789,139.3630,324.0180,5.710323,0.0722292,0.38327110,199.5691,06/20.0/2026,2000,g 10.5,4.0
# From MPC194159
P/2019 A3 (PANSTARRS),e,15.3626,31.0757,325.5751,3.141565,0.1770048,0.26871208,148.5517,06/20.0/2026,2000,g 16.0,4.0
# From MPC194159
P/2019 A4 (PANSTARRS),e,13.3069,119.2258,343.5669,2.613706,0.2332486,0.08752102,280.3399,06/20.0/2026,2000,g 15.0,4.0
# From MPC194159
C/2019 A5 (PANSTARRS),e,67.5577,146.4792,355.9259,21.54871,0.0098531,0.70676921,25.3128,06/20.0/2026,2000,g  9.5,4.0
# From MPC194159
P/2019 B2 (Groeller),e,16.9502,175.5465,0.4140,3.935910,0.1262224,0.35784019,328.5795,06/20.0/2026,2000,g 14.5,4.0
# From MPC194160
C/2019 B3 (PANSTARRS),e,66.6390,358.3957,263.9926,3058,0.0000058,0.99776657,0.0000,01/19.2314/2021,2000,g  5.5,4.0
# From MPEC 2026-L50
C/2019 E3 (ATLAS),e,84.3316,347.1760,280.7284,8385,0.0000013,0.99876996,0.0000,11/15.9489/2023,2000,g  2.5,4.0
# From MPC194160
C/2019 F1 (ATLAS-Africano),e,54.2945,38.6704,251.2480,12992,0.0000007,0.99972247,0.0000,06/20.6231/2021,2000,g  5.5,4.0
# From MPC194161
C/2019 K7 (Smith),e,103.4600,308.0519,27.2937,10821,0.0000009,0.99958691,0.0000,06/16.2703/2020,2000,g  6.0,4.0
# From MPEC 2026-KB8
P/2019 LD2 (ATLAS),e,11.7676,177.3521,116.0495,5.142697,0.0845119,0.13707636,198.0719,06/20.0/2026,2000,g  8.5,4.0
# From MPC194162
C/2019 L3 (ATLAS),h,01/10.2288/2022,48.3467,290.7108,171.8282,1.003572,3.563912,2000,4.5,4.0
# From MPC194162
P/2019 LM4 (Palomar),e,36.4082,72.8582,68.2508,5.700905,0.0724083,0.58660320,185.0155,06/20.0/2026,2000,g  9.5,4.0
# From MPC194162
C/2019 M4 (TESS),e,65.7199,52.6303,260.3068,12133,0.0000007,0.99924264,0.0000,09/08.0503/2019,2000,g  5.0,4.0
# From MPC194162
C/2019 N1 (ATLAS),e,82.6204,13.4690,193.3435,937.1887,0.0000344,0.99818304,0.0000,11/30.4254/2020,2000,g  7.5,4.0
# From MPC194162
A/2019 N2,e,89.5448,276.4063,346.5134,74.94874,0.0015190,0.97436452,0.0000,08/21.3761/2019,2000,g 12.5,2.0
# From MPC194162
C/2019 NJ3 (Lemmon),h,10/21.5412/2020,99.3011,142.4923,246.8677,1.001433,4.362544,2000,9.0,4.0
# From MPEC 2026-M30
C/2019 O2 (PANSTARRS),e,93.2754,48.2668,129.5588,58.86199,0.0021825,0.83555100,2.5560,06/20.0/2026,2000,g  5.0,4.0
# From MPC194162
C/2019 O3 (Palomar),h,03/06.8950/2021,89.7899,300.4843,60.0612,1.001228,8.819754,2000,3.5,4.0
# From MPC194163
C/2019 Q1 (Lemmon),h,07/22.6524/2020,155.7031,42.4804,56.2208,1.002499,4.996826,2000,8.5,4.0
# From MPC194163
P/2019 S2 (PANSTARRS),e,10.4619,93.1240,216.9176,4.748314,0.0952566,0.20467585,255.6026,06/20.0/2026,2000,g 13.5,4.0
# From MPC194163
P/2019 S3 (PANSTARRS),e,8.6916,150.1063,213.1461,3.413741,0.1562638,0.47062738,28.5577,06/20.0/2026,2000,g 18.3,4.0
# From MPC194163
A/2019 T1,e,120.7829,6.9099,90.9296,38.60809,0.0041085,0.88933480,8.1454,06/20.0/2026,2000,g 13.0,2.0
# From MPC194163
C/2019 T2 (Lemmon),e,111.3251,155.6486,239.3546,2340,0.0000087,0.99887078,0.0000,04/21.9370/2021,2000,g  9.0,4.0
# From MPC194163
C/2019 T3 (ATLAS),e,121.8929,139.5539,112.4868,7086,0.0000017,0.99916011,0.0000,03/05.2523/2021,2000,g  6.8,4.0
# From MPC194163
C/2019 T4 (ATLAS),e,53.6259,199.8601,351.1283,917.9880,0.0000354,0.99538503,0.0000,06/08.8686/2022,2000,g  5.0,4.0
# From MPC194164
P/2019 U4 (PANSTARRS),e,11.6988,199.9750,181.1334,3.517384,0.1494082,0.47550855,7.8139,06/20.0/2026,2000,g 19.0,4.0
# From MPC194164
C/2019 U5 (PANSTARRS),e,113.5182,2.5830,181.4513,36810,0.0000001,0.99990150,0.0000,03/29.2221/2023,2000,g  4.5,4.0
# From MPC194164
P/2019 V2 (Groeller),e,11.8085,189.1012,335.6993,7.496167,0.0480225,0.33224912,99.4300,06/20.0/2026,2000,g 10.0,4.0
# From MPC194164
P/2019 W1 (PANSTARRS),e,23.4618,35.3392,18.9371,4.548491,0.1016022,0.26695051,263.6870,06/20.0/2026,2000,g 12.9,4.0
# From MPC194164
P/2019 X1 (Pruyne),e,10.2405,43.6497,37.1077,6.182664,0.0641122,0.30336100,161.6974,06/20.0/2026,2000,g 10.4,4.0
# From MPEC 2026-L50
P/2019 X2 (Pan-STARRS),e,15.9001,250.8516,213.5445,3.633405,0.1423093,0.50055626,338.7880,06/20.0/2026,2000,g 18.0,4.0
# From MPC194165
C/2020 A3 (ATLAS),e,146.6130,120.7950,268.2178,2872,0.0000064,0.99799585,0.0000,06/25.3275/2019,2000,g  8.0,4.0
# From MPC194166
P/2020 B4 (Sheppard),e,11.6009,185.9202,342.2262,7.978950,0.0437306,0.19334414,73.0725,06/20.0/2026,2000,g 10.5,4.0
# From MPC194166
C/2020 F2 (ATLAS),h,07/11.7385/2022,163.5906,250.2889,48.2212,1.001060,8.815186,2000,4.5,4.0
# From MPC194166
C/2020 F5 (MASTER),e,52.2495,350.5802,310.5347,160.8857,0.0004830,0.97313397,0.0000,03/15.7196/2021,2000,g  6.5,3.2
# From MPC194166
C/2020 F7 (Lemmon),e,93.9997,321.8083,228.0276,611.5773,0.0000652,0.99127258,0.0000,11/14.4262/2021,2000,g  7.0,4.0
# From MPC194166
P/2020 G1 (Pimentel),e,18.5043,240.1155,207.6246,3.595097,0.1445900,0.86041884,329.9424,06/20.0/2026,2000,g 17.0,4.0
# From MPC194166
C/2020 H5 (Robinson),e,70.2017,210.5944,326.2742,7934,0.0000014,0.99882343,0.0000,12/10.2764/2020,2000,g  5.0,4.0
# From MPC194167
C/2020 H6 (ATLAS),e,80.0109,213.6564,20.1710,1747,0.0000135,0.99731297,0.0000,09/29.3149/2021,2000,g  8.0,3.2
# From MPC194167
C/2020 H11 (PANSTARRS-Lemmon),e,151.3678,303.0585,91.3459,4838,0.0000029,0.99842444,0.0000,09/11.1096/2020,2000,g  8.5,4.0
# From MPC194167
C/2020 J1 (SONEAR),e,142.3124,226.5430,341.5009,3473,0.0000048,0.99903725,0.0000,04/17.3067/2021,2000,g  8.5,3.2
# From MPC194167
C/2020 K1 (PANSTARRS),e,89.6732,94.3653,213.9448,1504,0.0000169,0.99795530,0.0000,05/08.2196/2023,2000,g  5.5,4.0
# From MPC194167
C/2020 K2 (PANSTARRS),h,08/02.8761/2020,90.9932,288.4417,67.2766,1.000109,8.879625,2000,6.5,4.0
# From MPC194167
C/2020 K6 (Rankin),h,09/13.6594/2021,103.6273,291.6031,44.2299,1.000984,5.864436,2000,8.0,4.0
# From MPC194168
C/2020 K7 (PANSTARRS),e,32.0446,286.1301,357.9847,93.41457,0.0010916,0.93170155,2.6535,06/20.0/2026,2000,g  8.0,4.0
# From MPC194168
P/2020 K9 (Lemmon-PANSTARRS),e,23.1824,166.2383,197.1118,4.209096,0.1141355,0.31970083,223.3135,06/20.0/2026,2000,g 12.5,4.0
# From MPC194168
